NEXTSAT-1
1 43811U 18099BF  25330.08054542  .00005760  00000+0  38578-3 0  9996
2 43811  97.4366  14.7517 0011573 318.2623  41.7721 15.07222709381279